OBJECT_NAME,OBJECT_ID,EPOCH,MEAN_MOTION,ECCENTRICITY,INCLINATION,RA_OF_ASC_NODE,ARG_OF_PERICENTER,MEAN_ANOMALY,EPHEMERIS_TYPE,CLASSIFICATION_TYPE,NORAD_CAT_ID,ELEMENT_SET_NO,REV_AT_EPOCH,BSTAR,MEAN_MOTION_DOT,MEAN_MOTION_DDOT
RESURS-DK 1,2006-021A,2026-07-24T07:34:53.322816,15.13345634,.00076086,69.9299,243.4302,261.5867,98.4437,0,U,29228,999,10819,.10963584E-3,.1851E-4,0
COSMO-SKYMED 1,2007-023A,2026-07-24T07:03:56.446848,14.97262090,.00019108,97.8863,37.4659,91.3853,268.7587,0,U,31598,999,3534,.29782283E-3,.339E-4,0
COSMOS 2428,2007-029A,2026-07-24T07:28:31.222272,14.12941208,.0007366,70.9381,276.5324,63.1743,297.0130,0,U,31792,999,98339,.22232304E-3,.366E-5,0
KORONAS-FOTON,2009-003A,2026-07-24T07:01:55.422912,15.46487529,.001122,82.4304,133.5328,33.4440,326.7515,0,U,33504,999,96683,.32119946E-3,.16013E-3,0
SHIJIAN-16 (SJ-16),2013-057A,2026-07-24T07:18:27.666432,14.92689333,.0015402,74.9728,286.3806,142.5300,217.6966,0,U,39358,999,69188,.13222069E-3,.1338E-4,0
ALOS-2,2014-029A,2026-07-24T06:28:14.055168,14.79475356,.0001596,97.9223,301.9035,94.6883,265.4511,0,U,39766,999,65706,.12914177E-3,.913E-5,0
YAOGAN-29,2015-069A,2026-07-24T08:27:24.667776,14.83110397,.00000961,98.0026,234.0415,158.3397,201.7820,0,U,41038,999,57613,.17094053E-4,.85E-6,0
ASTRO-H (HITOMI),2016-012A,2026-07-24T07:14:18.862080,15.10662752,.00096967,30.9974,194.4619,266.3089,93.6441,0,U,41337,999,57290,.13521951E-3,.2391E-4,0
HXMT (HUIYAN),2017-034A,2026-07-24T07:06:18.851328,15.18758687,.00310289,43.0152,336.3659,18.3386,341.8575,0,U,42758,999,50330,.34872323E-3,.7233E-4,0
SAOCOM 1A,2018-076A,2026-07-24T08:01:31.294272,14.82150991,.00014635,97.8897,31.5438,89.6173,270.5208,0,U,43641,999,42160,.34238552E-4,.22E-5,0
SAOCOM 1B,2020-059A,2026-07-24T07:09:14.897376,14.82148645,.00015393,97.8903,30.6048,85.9651,274.1738,0,U,46265,999,31898,.59202499E-4,.419E-5,0
CSS (TIANHE),2021-035A,2026-07-23T17:44:40.768800,15.58301329,.00027939,41.4707,100.0405,309.6650,50.3941,0,U,48274,999,29887,.13736922E-3,.10396E-3,0
COSMOS 2550,2021-056A,2026-07-24T07:45:02.262240,15.33903372,.00085801,67.1437,347.5705,269.1208,90.8964,0,U,48865,999,28441,.19819376E-3,.635E-4,0
XRISM,2023-137A,2026-07-24T03:27:48.122208,15.12727222,.00077576,31.0020,120.1530,335.1147,24.9117,0,U,57800,999,15846,.3093278E-3,.5657E-4,0
ACS3,2024-077B,2026-07-24T06:55:23.865888,13.95872753,.01307591,97.1789,115.8723,26.2677,334.5044,0,U,59588,999,11321,.27997584E-1,.41294E-3,0
SPACEMOBILE-003,2024-163A,2026-07-24T05:12:52.595424,15.20665838,.00035075,52.9691,139.1555,222.9316,137.1405,0,U,61045,999,10340,.78993687E-4,.1431E-4,0
SPACEMOBILE-005,2024-163B,2026-07-24T04:49:11.514144,15.20600133,.00080824,52.9735,139.1924,222.5536,137.4832,0,U,61046,999,10339,.84903061E-3,.1858E-3,0
SPACEMOBILE-001,2024-163C,2026-07-24T04:46:38.128224,15.20668192,.00065595,52.9700,138.9039,220.2350,139.8159,0,U,61047,999,10339,.521716E-5,-.212E-5,0
SPACEMOBILE-002,2024-163D,2026-07-24T05:59:04.411104,15.20485244,.00048092,52.9772,138.7267,213.5116,146.5574,0,U,61048,999,10340,.11951655E-2,.26215E-3,0
